NORAD_CAT_ID,OBJECT_NAME,OBJECT_TYPE,EPOCH,MEAN_MOTION,ECCENTRICITY,INCLINATION,RA_OF_ASC_NODE,ARG_OF_PERICENTER,MEAN_ANOMALY,BSTAR,MEAN_MOTION_DOT,MEAN_MOTION_DDOT,TLE_LINE0,TLE_LINE1,TLE_LINE2,SEMIMAJOR_AXIS,PERIOD,APOGEE,PERIGEE,DECAYED
53740.0,STARLINK-4607,PAYLOAD,2023-05-12 09:29:58,15.08839892,0.0001383,53.2155,218.1605,124.9591,235.1531,4.3521e-05,4.05e-06,0.0,0 STARLINK-4607,1 53740U 22107AS  23132.39581489  .00000405  00000-0  43521-4 0  9997,2 53740  53.2155 218.1605 0001383 124.9591 235.1531 15.08839892 37970,6917.881,95.438,540.702,538.789,0.0
53740.0,STARLINK-4607,PAYLOAD,2023-05-13 12:31:32,15.08838119,9.48e-05,53.2152,213.1052,93.0835,267.0266,3.2197e-05,2.25e-06,0.0,0 STARLINK-4607,1 53740U 22107AS  23133.52189949  .00000225  00000-0  32197-4 0  9995,2 53740  53.2152 213.1052 0000948  93.0835 267.0266 15.08838119 38141,6917.886,95.438,540.407,539.095,0.0
53740.0,STARLINK-4607,PAYLOAD,2023-05-14 13:57:42,15.08837166,0.0001184,53.2157,208.348,85.9219,274.1909,0.00052584,8.09e-05,0.0,0 STARLINK-4607,1 53740U 22107AS  23134.58174530  .00008090  00000-0  52584-3 0  9991,2 53740  53.2157 208.3480 0001184  85.9219 274.1909 15.08837166 38308,6917.889,95.438,540.573,538.935,0.0
53740.0,STARLINK-4607,PAYLOAD,2023-05-15 12:13:06,15.08841796,0.000113,53.216,204.1827,79.5166,280.5953,0.00012428,1.691e-05,0.0,0 STARLINK-4607,1 53740U 22107AS  23135.50910244  .00001691  00000-0  12428-3 0  9997,2 53740  53.2160 204.1827 0001130  79.5166 280.5953 15.08841796 39228,6917.875,95.437,540.522,538.958,0.0
53740.0,STARLINK-4607,PAYLOAD,2023-05-16 13:39:16,15.088429,0.0001177,53.2168,199.4239,83.6061,276.5065,4.3999e-05,4.13e-06,0.0,0 STARLINK-4607,1 53740U 22107AS  23136.56894392  .00000413  00000-0  43999-4 0  9998,2 53740  53.2168 199.4239 0001177  83.6061 276.5065 15.08842900 38608,6917.872,95.437,540.551,538.922,0.0
53740.0,STARLINK-4607,PAYLOAD,2023-05-16 21:36:12,15.08844026,8.38e-05,53.2157,197.9415,87.579,272.5298,4.0927e-05,3.64e-06,0.0,0 STARLINK-4607,1 53740U 22107AS  23136.90014124  .00000364  00000-0  40927-4 0  9996,2 53740  53.2157 197.9415 0000838  87.5790 272.5298 15.08844026 39437,6917.868,95.437,540.313,539.153,0.0
53740.0,STARLINK-4607,PAYLOAD,2023-05-17 21:26:59,15.08839939,0.0001042,53.2155,193.4788,90.4396,269.6715,6.0432e-05,6.74e-06,0.0,0 STARLINK-4607,1 53740U 22107AS  23137.89374194  .00000674  00000-0  60432-4 0  9998,2 53740  53.2155 193.4788 0001042  90.4396 269.6715 15.08839939 39586,6917.881,95.438,540.466,539.025,0.0
53740.0,STARLINK-4607,PAYLOAD,2023-05-18 13:20:50,15.08837837,0.0001075,53.2158,190.5046,94.9021,265.2094,2.5819e-05,1.23e-06,0.0,0 STARLINK-4607,1 53740U 22107AS  23138.55614387  .00000123  00000-0  25819-4 0  9992,2 53740  53.2158 190.5046 0001075  94.9021 265.2094 15.08837837 39682,6917.887,95.438,540.496,539.008,0.0
53740.0,STARLINK-4607,PAYLOAD,2023-05-18 14:56:13,15.08839484,0.0001087,53.216,190.2075,93.147,266.9647,3.5872e-05,2.83e-06,0.0,0 STARLINK-4607,1 53740U 22107AS  23138.62238254  .00000283  00000-0  35872-4 0  9992,2 53740  53.2160 190.2075 0001087  93.1470 266.9647 15.08839484 39699,6917.882,95.438,540.499,538.995,0.0
53740.0,STARLINK-4607,PAYLOAD,2023-05-19 08:25:28,15.08837916,0.0001095,53.2159,186.9361,98.5563,261.5553,-1.3368e-05,-5.01e-06,0.0,0 STARLINK-4607,1 53740U 22107AS  23139.35102536 -.00000501  00000-0 -13368-4 0  9997,2 53740  53.2159 186.9361 0001095  98.5563 261.5553 15.08837916 39020,6917.887,95.438,540.509,538.994,0.0
53740.0,STARLINK-4607,PAYLOAD,2023-05-19 19:33:10,15.0884145,0.0001076,53.2165,184.8545,100.4783,259.633,-4.8753e-05,-1.064e-05,0.0,0 STARLINK-4607,1 53740U 22107AS  23139.81470393 -.00001064  00000-0 -48753-4 0  9998,2 53740  53.2165 184.8545 0001076 100.4783 259.6330 15.08841450 39876,6917.876,95.437,540.485,538.997,0.0
53740.0,STARLINK-4607,PAYLOAD,2023-05-20 19:23:57,15.0884469,9.84e-05,53.2156,180.3949,89.8152,270.2953,9.799e-05,1.272e-05,0.0,0 STARLINK-4607,1 53740U 22107AS  23140.80829893  .00001272  00000-0  97990-4 0  9998,2 53740  53.2156 180.3949 0000984  89.8152 270.2953 15.08844690 40020,6917.866,95.437,540.412,539.05,0.0
53740.0,STARLINK-4607,PAYLOAD,2023-05-20 22:34:43,15.08844619,0.0001025,53.2153,179.8004,90.0655,270.0454,7.093e-05,8.41e-06,0.0,0 STARLINK-4607,1 53740U 22107AS  23140.94077967  .00000841  00000-0  70930-4 0  9996,2 53740  53.2153 179.8004 0001025  90.0655 270.0454 15.08844619 39260,6917.866,95.437,540.44,539.022,0.0
53740.0,STARLINK-4607,PAYLOAD,2023-05-21 08:07:02,15.08845159,9.9e-05,53.2154,178.0163,87.447,272.6636,0.00011435,1.533e-05,0.0,0 STARLINK-4607,1 53740U 22107AS  23141.33821824  .00001533  00000-0  11435-3 0  9992,2 53740  53.2154 178.0163 0000990  87.4470 272.6636 15.08845159 40108,6917.865,95.437,540.414,539.045,0.0
53740.0,STARLINK-4607,PAYLOAD,2023-05-21 22:44:22,15.08854925,0.0001376,53.2185,175.2864,126.0143,305.3248,0.0002101,3.059e-05,0.0,0 STARLINK-4607,1 53740U 22107AS  23141.94747840  .00003059  00000-0  21010-3 0  9999,2 53740  53.2185 175.2864 0001376 126.0143 305.3248 15.08854925 39411,6917.835,95.437,540.652,538.748,0.0
53740.0,STARLINK-4607,PAYLOAD,2023-05-22 06:22:27,15.08830875,0.000101,53.2153,173.8543,85.7421,274.3686,-4.4852e-05,-1.001e-05,0.0,0 STARLINK-4607,1 53740U 22107AS  23142.26559360 -.00001001  00000-0 -44852-4 0  9990,2 53740  53.2153 173.8543 0001010  85.7421 274.3686 15.08830875 39463,6917.908,95.438,540.472,539.075,0.0
53740.0,STARLINK-4607,PAYLOAD,2023-05-22 09:33:13,15.0883023,0.000101,53.2154,173.2598,85.463,274.6477,-4.7221e-05,-1.039e-05,0.0,0 STARLINK-4607,1 53740U 22107AS  23142.39807461 -.00001039  00000-0 -47221-4 0  9996,2 53740  53.2154 173.2598 0001010  85.4630 274.6477 15.08830230 40263,6917.91,95.438,540.474,539.077,0.0
53740.0,STARLINK-4607,PAYLOAD,2023-05-22 19:05:32,15.08836081,9.81e-05,53.2156,171.4755,92.9966,267.1139,-1.9716e-05,-6.01e-06,0.0,0 STARLINK-4607,1 53740U 22107AS  23142.79551091 -.00000601  00000-0 -19716-4 0  9997,2 53740  53.2156 171.4755 0000981  92.9966 267.1139 15.08836081 40320,6917.892,95.438,540.436,539.079,0.0
53740.0,STARLINK-4607,PAYLOAD,2023-05-23 01:27:04,15.08839546,9.6e-05,53.2154,170.2852,94.0273,266.0829,2.3734e-06,-2.5e-06,0.0,0 STARLINK-4607,1 53740U 22107AS  23143.06046796 -.00000250  00000-0  23734-5 0  9994,2 53740  53.2154 170.2852 0000960  94.0273 266.0829 15.08839546 39583,6917.882,95.438,540.411,539.083,0.0
53740.0,STARLINK-4607,PAYLOAD,2023-05-23 18:56:19,15.08835405,8.7e-05,53.2152,167.0131,94.7188,265.3903,5.2757e-05,5.52e-06,0.0,0 STARLINK-4607,1 53740U 22107AS  23143.78910967  .00000552  00000-0  52757-4 0  9993,2 53740  53.2152 167.0131 0000870  94.7188 265.3903 15.08835405 40472,6917.894,95.438,540.361,539.158,0.0
53740.0,STARLINK-4607,PAYLOAD,2023-05-24 10:50:10,15.08835694,8.69e-05,53.2152,164.0393,93.4423,266.6669,9.8342e-05,1.278e-05,0.0,0 STARLINK-4607,1 53740U 22107AS  23144.45151094  .00001278  00000-0  98342-4 0  9992,2 53740  53.2152 164.0393 0000869  93.4423 266.6669 15.08835694 39791,6917.894,95.438,540.36,539.157,0.0
53740.0,STARLINK-4607,PAYLOAD,2023-05-26 04:10:11,15.08840356,8.65e-05,53.215,156.3072,89.7525,270.3567,4.2532e-05,3.89e-06,0.0,0 STARLINK-4607,1 53740U 22107AS  23146.17374883  .00000389  00000-0  42532-4 0  9998,2 53740  53.2150 156.3072 0000865  89.7525 270.3567 15.08840356 40055,6917.879,95.438,540.343,539.146,0.0
53740.0,STARLINK-4607,PAYLOAD,2023-05-26 10:31:44,15.08841292,8.96e-05,53.2149,155.1181,80.4763,279.633,3.6326e-05,2.9e-06,0.0,0 STARLINK-4607,1 53740U 22107AS  23146.43870839  .00000290  00000-0  36326-4 0  9994,2 53740  53.2149 155.1181 0000896  80.4763 279.6330 15.08841292 40877,6917.876,95.437,540.361,539.122,0.0
53740.0,STARLINK-4607,PAYLOAD,2023-05-27 04:00:59,15.08835584,8.98e-05,53.2148,151.8461,89.5274,270.5821,-2.1218e-05,-6.25e-06,0.0,0 STARLINK-4607,1 53740U 22107AS  23147.16735341 -.00000625  00000-0 -21218-4 0  9991,2 53740  53.2148 151.8461 0000898  89.5274 270.5821 15.08835584 40208,6917.894,95.438,540.38,539.138,0.0
53740.0,STARLINK-4607,PAYLOAD,2023-05-27 16:44:04,15.08837642,9.06e-05,53.2149,149.4673,77.4224,282.6869,-7.8216e-06,-4.12e-06,0.0,0 STARLINK-4607,1 53740U 22107AS  23147.69727263 -.00000412  00000-0 -78216-5 0  9998,2 53740  53.2149 149.4673 0000906  77.4224 282.6869 15.08837642 41066,6917.888,95.438,540.379,539.126,0.0
53740.0,STARLINK-4607,PAYLOAD,2023-05-28 05:27:09,15.088374,9.37e-05,53.215,147.0881,76.3325,283.7771,2.2937e-05,7.7e-07,0.0,0 STARLINK-4607,1 53740U 22107AS  23148.22719273  .00000077  00000-0  22937-4 0  9993,2 53740  53.2150 147.0881 0000937  76.3325 283.7771 15.08837400 40365,6917.888,95.438,540.402,539.105,0.0
53740.0,STARLINK-4607,PAYLOAD,2023-05-28 16:34:51,15.08837386,9.42e-05,53.2153,145.0066,75.0734,285.0362,3.8098e-05,3.19e-06,0.0,0 STARLINK-4607,1 53740U 22107AS  23148.69087303  .00000319  00000-0  38098-4 0  9990,2 53740  53.2153 145.0066 0000942  75.0734 285.0362 15.08837386 41216,6917.888,95.438,540.405,539.102,0.0
53740.0,STARLINK-4607,PAYLOAD,2023-05-29 10:04:06,15.08835637,9.61e-05,53.2154,141.7371,81.4379,278.6722,5.2467e-05,5.47e-06,0.0,0 STARLINK-4607,1 53740U 22107AS  23149.41951584  .00000547  00000-0  52467-4 0  9991,2 53740  53.2154 141.7371 0000961  81.4379 278.6722 15.08835637 40546,6917.894,95.438,540.424,539.094,0.0
53740.0,STARLINK-4607,PAYLOAD,2023-05-29 13:14:52,15.08837149,9.65e-05,53.2155,141.1425,81.9913,278.1188,5.3354e-05,5.61e-06,0.0,0 STARLINK-4607,1 53740U 22107AS  23149.55199507  .00000561  00000-0  53354-4 0  9997,2 53740  53.2155 141.1425 0000965  81.9913 278.1188 15.08837149 41344,6917.889,95.438,540.422,539.087,0.0
53740.0,STARLINK-4607,PAYLOAD,2023-05-29 16:25:38,15.08835395,9.67e-05,53.2153,140.5477,84.6679,275.4424,4.0047e-05,3.5e-06,0.0,0 STARLINK-4607,1 53740U 22107AS  23149.68447681  .00000350  00000-0  40047-4 0  9991,2 53740  53.2153 140.5477 0000967  84.6679 275.4424 15.08835395 41369,6917.894,95.438,540.428,539.091,0.0
